{"type": "FeatureCollection", "features": [ {"type": "Feature", "properties": {"norad_id": 33153, "name": "INTELSAT 25 (IS-25)", "group": "intelsat", "lat": 1.0296353219462253, "lon": -125.0099687600109, "alt_km": 35769.11688970892, "timestamp": "2025-12-24T11:32:59.671696+00:00", "meta": {"OBJECT_NAME": "INTELSAT 25 (IS-25)", "OBJECT_ID": "2008-034A", "EPOCH": "2025-12-23T23:15:16.270848", "MEAN_MOTION": 1.00272434, "ECCENTRICITY": 0.0004858, "INCLINATION": 2.2548, "RA_OF_ASC_NODE": 82.5288, "ARG_OF_PERICENTER": 188.1867, "MEAN_ANOMALY": 139.3556, "EPHEMERIS_TYPE": 0, "CLASSIFICATION_TYPE": "U", "NORAD_CAT_ID": 33153, "ELEMENT_SET_NO": 999, "REV_AT_EPOCH": 6393, "BSTAR": 0, "MEAN_MOTION_DOT": -2.04e-06, "MEAN_MOTION_DDOT": 0}, "tle": {"line1": "1 33153U 08034A   25357.96893832 -.00000204  00000+0  00000+0 0  9995", "line2": "2 33153   2.2548  82.5288 0004858 188.1867 139.3556  1.00272434 63931"}}, "geometry": {"type": "Point", "coordinates": [-125.0099687600109, 1.0296353219462253]}}, {"type": "Feature", "properties": {"norad_id": 33376, "name": "GALAXY 19 (G-19)", "group": "intelsat", "lat": -0.02790309515039441, "lon": 169.4619209118471, "alt_km": 35790.4735148487, "timestamp": "2025-12-24T11:32:59.671714+00:00", "meta": {"OBJECT_NAME": "GALAXY 19 (G-19)", "OBJECT_ID": "2008-045A", "EPOCH": "2025-12-23T22:56:33.064800", "MEAN_MOTION": 1.00270811, "ECCENTRICITY": 0.0002658, "INCLINATION": 0.0443, "RA_OF_ASC_NODE": 265.0665, "ARG_OF_PERICENTER": 15.7896, "MEAN_ANOMALY": 59.014, "EPHEMERIS_TYPE": 0, "CLASSIFICATION_TYPE": "U", "NORAD_CAT_ID": 33376, "ELEMENT_SET_NO": 999, "REV_AT_EPOCH": 6314, "BSTAR": 0, "MEAN_MOTION_DOT": -1.18e-06, "MEAN_MOTION_DDOT": 0}, "tle": {"line1": "1 33376U 08045A   25357.95593825 -.00000118  00000+0  00000+0 0  9996", "line2": "2 33376   0.0443 265.0665 0002658  15.7896  59.0140  1.00270811 63145"}}, "geometry": {"type": "Point", "coordinates": [169.4619209118471, -0.02790309515039441]}}, {"type": "Feature", "properties": {"norad_id": 35493, "name": "FM-5", "group": "intelsat", "lat": -0.012351252657583425, "lon": -179.64175706370196, "alt_km": 35782.97626713638, "timestamp": "2025-12-24T11:32:59.671726+00:00", "meta": {"OBJECT_NAME": "FM-5", "OBJECT_ID": "2009-034A", "EPOCH": "2025-12-24T03:45:40.818816", "MEAN_MOTION": 1.00270077, "ECCENTRICITY": 9.32e-05, "INCLINATION": 0.0207, "RA_OF_ASC_NODE": 292.326, "ARG_OF_PERICENTER": 225.3034, "MEAN_ANOMALY": 265.5848, "EPHEMERIS_TYPE": 0, "CLASSIFICATION_TYPE": "U", "NORAD_CAT_ID": 35493, "ELEMENT_SET_NO": 999, "REV_AT_EPOCH": 4488, "BSTAR": 0, "MEAN_MOTION_DOT": -1.79e-06, "MEAN_MOTION_DDOT": 0}, "tle": {"line1": "1 35493U 09034A   25358.15672244 -.00000179  00000+0  00000+0 0  9990", "line2": "2 35493   0.0207 292.3260 0000932 225.3034 265.5848  1.00270077 44888"}}, "geometry": {"type": "Point", "coordinates": [-179.64175706370196, -0.012351252657583425]}}, {"type": "Feature", "properties": {"norad_id": 36097, "name": "INTELSAT 14 (IS-14)", "group": "intelsat", "lat": -0.020500352339139976, "lon": -138.54225862401384, "alt_km": 35781.99871055161, "timestamp": "2025-12-24T11:32:59.671739+00:00", "meta": {"OBJECT_NAME": "INTELSAT 14 (IS-14)", "OBJECT_ID": "2009-064A", "EPOCH": "2025-12-24T00:11:38.701248", "MEAN_MOTION": 1.00269289, "ECCENTRICITY": 0.0002594, "INCLINATION": 0.0139, "RA_OF_ASC_NODE": 4.4351, "ARG_OF_PERICENTER": 280.9851, "MEAN_ANOMALY": 125.2714, "EPHEMERIS_TYPE": 0, "CLASSIFICATION_TYPE": "U", "NORAD_CAT_ID": 36097, "ELEMENT_SET_NO": 999, "REV_AT_EPOCH": 5884, "BSTAR": 0, "MEAN_MOTION_DOT": -2.53e-06, "MEAN_MOTION_DDOT": 0}, "tle": {"line1": "1 36097U 09064A   25358.00808682 -.00000253  00000+0  00000+0 0  9998", "line2": "2 36097   0.0139   4.4351 0002594 280.9851 125.2714  1.00269289 58844"}}, "geometry": {"type": "Point", "coordinates": [-138.54225862401384, -0.020500352339139976]}}, {"type": "Feature", "properties": {"norad_id": 36106, "name": "INTELSAT 15 (IS-15)", "group": "intelsat", "lat": -0.01698534059883917, "lon": -8.31918924901398, "alt_km": 35782.53038024685, "timestamp": "2025-12-24T11:32:59.671751+00:00", "meta": {"OBJECT_NAME": "INTELSAT 15 (IS-15)", "OBJECT_ID": "2009-067A", "EPOCH": "2025-12-23T23:48:35.582400", "MEAN_MOTION": 1.00270914, "ECCENTRICITY": 0.000229, "INCLINATION": 0.0165, "RA_OF_ASC_NODE": 21.0917, "ARG_OF_PERICENTER": 263.9004, "MEAN_ANOMALY": 250.09, "EPHEMERIS_TYPE": 0, "CLASSIFICATION_TYPE": "U", "NORAD_CAT_ID": 36106, "ELEMENT_SET_NO": 999, "REV_AT_EPOCH": 3947, "BSTAR": 0, "MEAN_MOTION_DOT": -1.64e-06, "MEAN_MOTION_DDOT": 0}, "tle": {"line1": "1 36106U 09067A   25357.99207850 -.00000164  00000+0  00000+0 0  9990", "line2": "2 36106   0.0165  21.0917 0002290 263.9004 250.0900  1.00270914 39470"}}, "geometry": {"type": "Point", "coordinates": [-8.31918924901398, -0.01698534059883917]}}, {"type": "Feature", "properties": {"norad_id": 36131, "name": "DIRECTV 12", "group": "intelsat", "lat": 0.013636243532375835, "lon": 163.7826568883503, "alt_km": 35787.96609860847, "timestamp": "2025-12-24T11:32:59.671763+00:00", "meta": {"OBJECT_NAME": "DIRECTV 12", "OBJECT_ID": "2009-075A", "EPOCH": "2025-12-24T04:10:44.775840", "MEAN_MOTION": 1.0027113, "ECCENTRICITY": 4.2e-05, "INCLINATION": 0.0196, "RA_OF_ASC_NODE": 114.8681, "ARG_OF_PERICENTER": 212.7199, "MEAN_ANOMALY": 85.3384, "EPHEMERIS_TYPE": 0, "CLASSIFICATION_TYPE": "U", "NORAD_CAT_ID": 36131, "ELEMENT_SET_NO": 999, "REV_AT_EPOCH": 4479, "BSTAR": 0, "MEAN_MOTION_DOT": -8.2e-07, "MEAN_MOTION_DDOT": 0}, "tle": {"line1": "1 36131U 09075A   25358.17412935 -.00000082  00000+0  00000+0 0  9999", "line2": "2 36131   0.0196 114.8681 0000420 212.7199  85.3384  1.00271130 44798"}}, "geometry": {"type": "Point", "coordinates": [163.7826568883503, 0.013636243532375835]}}, {"type": "Feature", "properties": {"norad_id": 36397, "name": "INTELSAT 16 (IS-16)", "group": "intelsat", "lat": -0.010381619205819008, "lon": -169.71168547708376, "alt_km": 35784.162318043425, "timestamp": "2025-12-24T11:32:59.671775+00:00", "meta": {"OBJECT_NAME": "INTELSAT 16 (IS-16)", "OBJECT_ID": "2010-006A", "EPOCH": "2025-12-23T12:46:10.935264", "MEAN_MOTION": 1.00272728, "ECCENTRICITY": 0.00018836, "INCLINATION": 0.0115, "RA_OF_ASC_NODE": 325.676, "ARG_OF_PERICENTER": 301.9136, "MEAN_ANOMALY": 300.0848, "EPHEMERIS_TYPE": 0, "CLASSIFICATION_TYPE": "U", "NORAD_CAT_ID": 36397, "ELEMENT_SET_NO": 999, "REV_AT_EPOCH": 5789, "BSTAR": 0, "MEAN_MOTION_DOT": -2.24e-06, "MEAN_MOTION_DDOT": 0}, "tle": {"line1": "1 36397U 10006A   25357.53207101 -.00000224  00000+0  00000+0 0  9993", "line2": "2 36397   0.0115 325.6760 0001883 301.9136 300.0848  1.00272728 57890"}}, "geometry": {"type": "Point", "coordinates": [-169.71168547708376, -0.010381619205819008]}}, {"type": "Feature", "properties": {"norad_id": 37185, "name": "XM-5", "group": "intelsat", "lat": -0.04013396566469875, "lon": 151.29877871740382, "alt_km": 35777.94919682045, "timestamp": "2025-12-24T11:32:59.671787+00:00", "meta": {"OBJECT_NAME": "XM-5", "OBJECT_ID": "2010-053A", "EPOCH": "2025-12-24T03:22:00.044256", "MEAN_MOTION": 1.0026917, "ECCENTRICITY": 0.0002107, "INCLINATION": 0.067, "RA_OF_ASC_NODE": 269.9485, "ARG_OF_PERICENTER": 238.8367, "MEAN_ANOMALY": 239.4376, "EPHEMERIS_TYPE": 0, "CLASSIFICATION_TYPE": "U", "NORAD_CAT_ID": 37185, "ELEMENT_SET_NO": 999, "REV_AT_EPOCH": 5572, "BSTAR": 0, "MEAN_MOTION_DOT": -2e-08, "MEAN_MOTION_DDOT": 0}, "tle": {"line1": "1 37185U 10053A   25358.14027829 -.00000002  00000+0  00000+0 0  9990", "line2": "2 37185   0.0670 269.9485 0002107 238.8367 239.4376  1.00269170 55728"}}, "geometry": {"type": "Point", "coordinates": [151.29877871740382, -0.04013396566469875]}}, {"type": "Feature", "properties": {"norad_id": 37238, "name": "INTELSAT 17 (IS-17)", "group": "intelsat", "lat": -0.006111917136382405, "lon": -27.491493953941053, "alt_km": 35779.03775225135, "timestamp": "2025-12-24T11:32:59.671800+00:00", "meta": {"OBJECT_NAME": "INTELSAT 17 (IS-17)", "OBJECT_ID": "2010-065B", "EPOCH": "2025-12-24T02:18:38.732832", "MEAN_MOTION": 1.00271512, "ECCENTRICITY": 0.0002678, "INCLINATION": 0.0039, "RA_OF_ASC_NODE": 327.2079, "ARG_OF_PERICENTER": 314.1259, "MEAN_ANOMALY": 272.1908, "EPHEMERIS_TYPE": 0, "CLASSIFICATION_TYPE": "U", "NORAD_CAT_ID": 37238, "ELEMENT_SET_NO": 999, "REV_AT_EPOCH": 5149, "BSTAR": 0, "MEAN_MOTION_DOT": 2e-07, "MEAN_MOTION_DDOT": 0}, "tle": {"line1": "1 37238U 10065B   25358.09628163  .00000020  00000+0  00000+0 0  9993", "line2": "2 37238   0.0039 327.2079 0002678 314.1259 272.1908  1.00271512 51492"}}, "geometry": {"type": "Point", "coordinates": [-27.491493953941053, -0.006111917136382405]}}, {"type": "Feature", "properties": {"norad_id": 37392, "name": "INTELSAT 28 (IS-28)", "group": "intelsat", "lat": 0.6653804592823598, "lon": -125.22544058350334, "alt_km": 35773.31024960409, "timestamp": "2025-12-24T11:32:59.671811+00:00", "meta": {"OBJECT_NAME": "INTELSAT 28 (IS-28)", "OBJECT_ID": "2011-016A", "EPOCH": "2025-12-23T23:15:08.784288", "MEAN_MOTION": 1.0027234, "ECCENTRICITY": 0.0003694, "INCLINATION": 1.3518, "RA_OF_ASC_NODE": 84.9333, "ARG_OF_PERICENTER": 186.3299, "MEAN_ANOMALY": 138.5663, "EPHEMERIS_TYPE": 0, "CLASSIFICATION_TYPE": "U", "NORAD_CAT_ID": 37392, "ELEMENT_SET_NO": 999, "REV_AT_EPOCH": 5152, "BSTAR": 0, "MEAN_MOTION_DOT": -2.04e-06, "MEAN_MOTION_DDOT": 0}, "tle": {"line1": "1 37392U 11016A   25357.96885167 -.00000204  00000+0  00000+0 0  9990", "line2": "2 37392   1.3518  84.9333 0003694 186.3299 138.5663  1.00272340 51528"}}, "geometry": {"type": "Point", "coordinates": [-125.22544058350334, 0.6653804592823598]}}]}